{"type": "FeatureCollection", "features": [ {"type": "Feature", "properties": {"norad_id": 35705, "name": "COSMOS 2251 DEB", "group": "cosmos-2251-debris", "lat": 13.54607390577067, "lon": -57.50576324018821, "alt_km": 654.616362113079, "timestamp": "2025-12-17T15:50:10.178428+00:00", "meta": {"OBJECT_NAME": "COSMOS 2251 DEB", "OBJECT_ID": "1993-036AQA", "EPOCH": "2025-12-13T16:30:25.570944", "MEAN_MOTION": 14.72285684, "ECCENTRICITY": 0.00330748, "INCLINATION": 74.2763, "RA_OF_ASC_NODE": 133.9994, "ARG_OF_PERICENTER": 83.0917, "MEAN_ANOMALY": 277.4017, "EPHEMERIS_TYPE": 0, "CLASSIFICATION_TYPE": "U", "NORAD_CAT_ID": 35705, "ELEMENT_SET_NO": 999, "REV_AT_EPOCH": 85940, "BSTAR": 0.003032246, "MEAN_MOTION_DOT": 0.00019351, "MEAN_MOTION_DDOT": 0}, "tle": {"line1": "1 35705U 93036AQA 25347.68779596  .00019351  00000+0  30322-2 0  9999", "line2": "2 35705  74.2763 133.9994 0033074  83.0917 277.4017 14.72285684859405"}}, "geometry": {"type": "Point", "coordinates": [-57.50576324018821, 13.54607390577067]}}, {"type": "Feature", "properties": {"norad_id": 35706, "name": "COSMOS 2251 DEB", "group": "cosmos-2251-debris", "lat": -20.241272344283992, "lon": 48.562677434030476, "alt_km": 1155.7693976631545, "timestamp": "2025-12-17T15:50:10.178439+00:00", "meta": {"OBJECT_NAME": "COSMOS 2251 DEB", "OBJECT_ID": "1993-036AQB", "EPOCH": "2025-12-16T22:21:53.665632", "MEAN_MOTION": 13.65932979, "ECCENTRICITY": 0.03403018, "INCLINATION": 73.8894, "RA_OF_ASC_NODE": 55.8826, "ARG_OF_PERICENTER": 104.8936, "MEAN_ANOMALY": 259.0123, "EPHEMERIS_TYPE": 0, "CLASSIFICATION_TYPE": "U", "NORAD_CAT_ID": 35706, "ELEMENT_SET_NO": 999, "REV_AT_EPOCH": 62119, "BSTAR": 0.00061499852, "MEAN_MOTION_DOT": 7.32e-06, "MEAN_MOTION_DDOT": 0}, "tle": {"line1": "1 35706U 93036AQB 25350.93187113  .00000732  00000+0  61500-3 0  9996", "line2": "2 35706  73.8894  55.8826 0340301 104.8936 259.0123 13.65932979621193"}}, "geometry": {"type": "Point", "coordinates": [48.562677434030476, -20.241272344283992]}}, {"type": "Feature", "properties": {"norad_id": 35711, "name": "COSMOS 2251 DEB", "group": "cosmos-2251-debris", "lat": -11.015084732631637, "lon": -152.1731603499776, "alt_km": 636.966614098571, "timestamp": "2025-12-17T15:50:10.178450+00:00", "meta": {"OBJECT_NAME": "COSMOS 2251 DEB", "OBJECT_ID": "1993-036AQG", "EPOCH": "2025-12-16T08:43:24.573504", "MEAN_MOTION": 14.63811457, "ECCENTRICITY": 0.00855113, "INCLINATION": 74.0451, "RA_OF_ASC_NODE": 213.5058, "ARG_OF_PERICENTER": 313.6514, "MEAN_ANOMALY": 45.7584, "EPHEMERIS_TYPE": 0, "CLASSIFICATION_TYPE": "U", "NORAD_CAT_ID": 35711, "ELEMENT_SET_NO": 999, "REV_AT_EPOCH": 87824, "BSTAR": 0.00016330045, "MEAN_MOTION_DOT": 8.64e-06, "MEAN_MOTION_DDOT": 0}, "tle": {"line1": "1 35711U 93036AQG 25350.36347886  .00000864  00000+0  16330-3 0  9991", "line2": "2 35711  74.0451 213.5058 0085511 313.6514  45.7584 14.63811457878249"}}, "geometry": {"type": "Point", "coordinates": [-152.1731603499776, -11.015084732631637]}}, {"type": "Feature", "properties": {"norad_id": 35716, "name": "COSMOS 2251 DEB", "group": "cosmos-2251-debris", "lat": 1.258227417274506, "lon": -174.84998810387165, "alt_km": 637.4144059083301, "timestamp": "2025-12-17T15:50:10.178459+00:00", "meta": {"OBJECT_NAME": "COSMOS 2251 DEB", "OBJECT_ID": "1993-036AQM", "EPOCH": "2025-12-16T22:02:27.255264", "MEAN_MOTION": 14.60091265, "ECCENTRICITY": 0.00889114, "INCLINATION": 73.992, "RA_OF_ASC_NODE": 186.2072, "ARG_OF_PERICENTER": 26.0951, "MEAN_ANOMALY": 39.9194, "EPHEMERIS_TYPE": 0, "CLASSIFICATION_TYPE": "U", "NORAD_CAT_ID": 35716, "ELEMENT_SET_NO": 999, "REV_AT_EPOCH": 87688, "BSTAR": 8.2846123e-05, "MEAN_MOTION_DOT": 3.88e-06, "MEAN_MOTION_DDOT": 0}, "tle": {"line1": "1 35716U 93036AQM 25350.91837101  .00000388  00000+0  82846-4 0  9998", "line2": "2 35716  73.9920 186.2072 0088911  26.0951  39.9194 14.60091265876886"}}, "geometry": {"type": "Point", "coordinates": [-174.84998810387165, 1.258227417274506]}}, {"type": "Feature", "properties": {"norad_id": 35717, "name": "COSMOS 2251 DEB", "group": "cosmos-2251-debris", "lat": 64.9689330604627, "lon": -8.949145443035945, "alt_km": 716.1813734522902, "timestamp": "2025-12-17T15:50:10.178470+00:00", "meta": {"OBJECT_NAME": "COSMOS 2251 DEB", "OBJECT_ID": "1993-036AQN", "EPOCH": "2025-12-15T21:36:31.335552", "MEAN_MOTION": 14.38515087, "ECCENTRICITY": 0.00772191, "INCLINATION": 74.1598, "RA_OF_ASC_NODE": 211.7132, "ARG_OF_PERICENTER": 70.2705, "MEAN_ANOMALY": 290.6758, "EPHEMERIS_TYPE": 0, "CLASSIFICATION_TYPE": "U", "NORAD_CAT_ID": 35717, "ELEMENT_SET_NO": 999, "REV_AT_EPOCH": 74145, "BSTAR": 0.0007891897, "MEAN_MOTION_DOT": 2.473e-05, "MEAN_MOTION_DDOT": 0}, "tle": {"line1": "1 35717U 93036AQN 25349.90036268  .00002473  00000+0  78919-3 0  9993", "line2": "2 35717  74.1598 211.7132 0077219  70.2705 290.6758 14.38515087741453"}}, "geometry": {"type": "Point", "coordinates": [-8.949145443035945, 64.9689330604627]}}, {"type": "Feature", "properties": {"norad_id": 35718, "name": "COSMOS 2251 DEB", "group": "cosmos-2251-debris", "lat": 25.562414115433654, "lon": 128.32099152419048, "alt_km": 669.724087485044, "timestamp": "2025-12-17T15:50:10.178480+00:00", "meta": {"OBJECT_NAME": "COSMOS 2251 DEB", "OBJECT_ID": "1993-036AQP", "EPOCH": "2025-12-17T02:38:13.400448", "MEAN_MOTION": 14.68736376, "ECCENTRICITY": 0.00104417, "INCLINATION": 74.0312, "RA_OF_ASC_NODE": 121.5128, "ARG_OF_PERICENTER": 170.1123, "MEAN_ANOMALY": 190.0255, "EPHEMERIS_TYPE": 0, "CLASSIFICATION_TYPE": "U", "NORAD_CAT_ID": 35718, "ELEMENT_SET_NO": 999, "REV_AT_EPOCH": 65904, "BSTAR": 0.0013106326, "MEAN_MOTION_DOT": 7.622e-05, "MEAN_MOTION_DDOT": 0}, "tle": {"line1": "1 35718U 93036AQP 25351.10987732  .00007622  00000+0  13106-2 0  9997", "line2": "2 35718  74.0312 121.5128 0010441 170.1123 190.0255 14.68736376659045"}}, "geometry": {"type": "Point", "coordinates": [128.32099152419048, 25.562414115433654]}}, {"type": "Feature", "properties": {"norad_id": 35721, "name": "COSMOS 2251 DEB", "group": "cosmos-2251-debris", "lat": 19.210263729638463, "lon": -17.07364187515942, "alt_km": 870.8584433751093, "timestamp": "2025-12-17T15:50:10.178490+00:00", "meta": {"OBJECT_NAME": "COSMOS 2251 DEB", "OBJECT_ID": "1993-036AQS", "EPOCH": "2025-12-09T19:36:39.465216", "MEAN_MOTION": 14.34317214, "ECCENTRICITY": 0.01465875, "INCLINATION": 73.9489, "RA_OF_ASC_NODE": 183.1196, "ARG_OF_PERICENTER": 330.1589, "MEAN_ANOMALY": 29.126, "EPHEMERIS_TYPE": 0, "CLASSIFICATION_TYPE": "U", "NORAD_CAT_ID": 35721, "ELEMENT_SET_NO": 999, "REV_AT_EPOCH": 57747, "BSTAR": 0.0018396061, "MEAN_MOTION_DOT": 5.808e-05, "MEAN_MOTION_DDOT": 0}, "tle": {"line1": "1 35721U 93036AQS 25343.81712344  .00005808  00000+0  18396-2 0  9995", "line2": "2 35721  73.9489 183.1196 0146587 330.1589  29.1260 14.34317214577479"}}, "geometry": {"type": "Point", "coordinates": [-17.07364187515942, 19.210263729638463]}}, {"type": "Feature", "properties": {"norad_id": 35724, "name": "COSMOS 2251 DEB", "group": "cosmos-2251-debris", "lat": 14.449111298137623, "lon": 109.08556252701524, "alt_km": 691.5112406643948, "timestamp": "2025-12-17T15:50:10.178500+00:00", "meta": {"OBJECT_NAME": "COSMOS 2251 DEB", "OBJECT_ID": "1993-036AQV", "EPOCH": "2025-12-16T06:09:29.643840", "MEAN_MOTION": 14.58206767, "ECCENTRICITY": 0.00589475, "INCLINATION": 74.0324, "RA_OF_ASC_NODE": 295.9861, "ARG_OF_PERICENTER": 88.6274, "MEAN_ANOMALY": 272.1643, "EPHEMERIS_TYPE": 0, "CLASSIFICATION_TYPE": "U", "NORAD_CAT_ID": 35724, "ELEMENT_SET_NO": 999, "REV_AT_EPOCH": 87580, "BSTAR": 0.00025759963, "MEAN_MOTION_DOT": 1.187e-05, "MEAN_MOTION_DDOT": 0}, "tle": {"line1": "1 35724U 93036AQV 25350.25659310  .00001187  00000+0  25760-3 0  9997", "line2": "2 35724  74.0324 295.9861 0058947  88.6274 272.1643 14.58206767875800"}}, "geometry": {"type": "Point", "coordinates": [109.08556252701524, 14.449111298137623]}}, {"type": "Feature", "properties": {"norad_id": 35759, "name": "COSMOS 2251 DEB", "group": "cosmos-2251-debris", "lat": 37.86318541464295, "lon": 13.727262848041528, "alt_km": 728.6289510392808, "timestamp": "2025-12-17T15:50:10.178511+00:00", "meta": {"OBJECT_NAME": "COSMOS 2251 DEB", "OBJECT_ID": "1993-036ARD", "EPOCH": "2025-12-16T22:48:21.857472", "MEAN_MOTION": 14.649052, "ECCENTRICITY": 0.00771902, "INCLINATION": 74.037, "RA_OF_ASC_NODE": 207.9493, "ARG_OF_PERICENTER": 325.1637, "MEAN_ANOMALY": 34.4491, "EPHEMERIS_TYPE": 0, "CLASSIFICATION_TYPE": "U", "NORAD_CAT_ID": 35759, "ELEMENT_SET_NO": 999, "REV_AT_EPOCH": 66197, "BSTAR": 0.00021335941, "MEAN_MOTION_DOT": 1.158e-05, "MEAN_MOTION_DDOT": 0}, "tle": {"line1": "1 35759U 93036ARD 25350.95025298  .00001158  00000+0  21336-3 0  9997", "line2": "2 35759  74.0370 207.9493 0077190 325.1637  34.4491 14.64905200661972"}}, "geometry": {"type": "Point", "coordinates": [13.727262848041528, 37.86318541464295]}}, {"type": "Feature", "properties": {"norad_id": 35771, "name": "COSMOS 2251 DEB", "group": "cosmos-2251-debris", "lat": -36.085630753007, "lon": -70.26893457211946, "alt_km": 831.0930217955838, "timestamp": "2025-12-17T15:50:10.178521+00:00", "meta": {"OBJECT_NAME": "COSMOS 2251 DEB", "OBJECT_ID": "1993-036ARR", "EPOCH": "2025-12-15T14:45:16.238592", "MEAN_MOTION": 14.13430046, "ECCENTRICITY": 0.02280549, "INCLINATION": 74.1561, "RA_OF_ASC_NODE": 305.27, "ARG_OF_PERICENTER": 242.9998, "MEAN_ANOMALY": 114.7698, "EPHEMERIS_TYPE": 0, "CLASSIFICATION_TYPE": "U", "NORAD_CAT_ID": 35771, "ELEMENT_SET_NO": 999, "REV_AT_EPOCH": 82901, "BSTAR": 0.0026764238, "MEAN_MOTION_DOT": 6.427e-05, "MEAN_MOTION_DDOT": 0}, "tle": {"line1": "1 35771U 93036ARR 25349.61477128  .00006427  00000+0  26764-2 0  9998", "line2": "2 35771  74.1561 305.2700 0228054 242.9998 114.7698 14.13430046829012"}}, "geometry": {"type": "Point", "coordinates": [-70.26893457211946, -36.085630753007]}}]}